[{"OBJECT_NAME":"STARLINK-31472","OBJECT_ID":"2024-090A","EPOCH":"2025-07-28T18:18:03.371328","MEAN_MOTION":15.27570652,"ECCENTRICITY":0.0001261,"INCLINATION":43.004,"RA_OF_ASC_NODE":8.097,"ARG_OF_PERICENTER":263.2776,"MEAN_ANOMALY":96.7932,"EPHEMERIS_TYPE":0,"CLASSIFICATION_TYPE":"U","NORAD_CAT_ID":59730,"ELEMENT_SET_NO":999,"REV_AT_EPOCH":6914,"BSTAR":-4.2355e-5,"MEAN_MOTION_DOT":-1.427e-5,"MEAN_MOTION_DDOT":0},{"OBJECT_NAME":"STARLINK-31817","OBJECT_ID":"2024-090B","EPOCH":"2025-07-28T17:52:08.690592","MEAN_MOTION":15.27569131,"ECCENTRICITY":0.0001117,"INCLINATION":43.0006,"RA_OF_ASC_NODE":7.9632,"ARG_OF_PERICENTER":251.4189,"MEAN_ANOMALY":108.6542,"EPHEMERIS_TYPE":0,"CLASSIFICATION_TYPE":"U","NORAD_CAT_ID":59731,"ELEMENT_SET_NO":999,"REV_AT_EPOCH":6921,"BSTAR":-0.0001058,"MEAN_MOTION_DOT":-3.171e-5,"MEAN_MOTION_DDOT":0},{"OBJECT_NAME":"STARLINK-31841","OBJECT_ID":"2024-090C","EPOCH":"2025-07-28T09:09:20.547648","MEAN_MOTION":15.30570952,"ECCENTRICITY":0.0005901,"INCLINATION":43.0054,"RA_OF_ASC_NODE":333.6866,"ARG_OF_PERICENTER":313.6681,"MEAN_ANOMALY":46.3682,"EPHEMERIS_TYPE":0,"CLASSIFICATION_TYPE":"U","NORAD_CAT_ID":59732,"ELEMENT_SET_NO":999,"REV_AT_EPOCH":6955,"BSTAR":0.00075297,"MEAN_MOTION_DOT":0.00022526,"MEAN_MOTION_DDOT":0},{"OBJECT_NAME":"STARLINK-31833","OBJECT_ID":"2024-090D","EPOCH":"2025-07-28T18:38:24.427104","MEAN_MOTION":15.27580962,"ECCENTRICITY":0.0001617,"INCLINATION":43.0045,"RA_OF_ASC_NODE":8.2004,"ARG_OF_PERICENTER":274.631,"MEAN_ANOMALY":85.4357,"EPHEMERIS_TYPE":0,"CLASSIFICATION_TYPE":"U","NORAD_CAT_ID":59733,"ELEMENT_SET_NO":999,"REV_AT_EPOCH":6914,"BSTAR":-4.05e-5,"MEAN_MOTION_DOT":-1.377e-5,"MEAN_MOTION_DDOT":0},{"OBJECT_NAME":"STARLINK-31849","OBJECT_ID":"2024-090E","EPOCH":"2025-07-28T18:23:09.160800","MEAN_MOTION":15.27573039,"ECCENTRICITY":0.0001214,"INCLINATION":43.0024,"RA_OF_ASC_NODE":1.1983,"ARG_OF_PERICENTER":279.091,"MEAN_ANOMALY":80.9804,"EPHEMERIS_TYPE":0,"CLASSIFICATION_TYPE":"U","NORAD_CAT_ID":59734,"ELEMENT_SET_NO":999,"REV_AT_EPOCH":6928,"BSTAR":9.3238e-6,"MEAN_MOTION_DOT":-6.0e-8,"MEAN_MOTION_DDOT":0},{"OBJECT_NAME":"STARLINK-31661","OBJECT_ID":"2024-090F","EPOCH":"2025-07-28T10:15:42.594048","MEAN_MOTION":15.27578605,"ECCENTRICITY":0.0001333,"INCLINATION":43.006,"RA_OF_ASC_NODE":2.9637,"ARG_OF_PERICENTER":263.5164,"MEAN_ANOMALY":96.5536,"EPHEMERIS_TYPE":0,"CLASSIFICATION_TYPE":"U","NORAD_CAT_ID":59735,"ELEMENT_SET_NO":999,"REV_AT_EPOCH":6917,"BSTAR":4.4277e-5,"MEAN_MOTION_DOT":9.56e-6,"MEAN_MOTION_DDOT":0},{"OBJECT_NAME":"STARLINK-31707","OBJECT_ID":"2024-090G","EPOCH":"2025-07-28T18:12:30.847968","MEAN_MOTION":15.2755211,"ECCENTRICITY":0.0001345,"INCLINATION":42.9975,"RA_OF_ASC_NODE":8.0636,"ARG_OF_PERICENTER":141.3434,"MEAN_ANOMALY":218.7514,"EPHEMERIS_TYPE":0,"CLASSIFICATION_TYPE":"U","NORAD_CAT_ID":59736,"ELEMENT_SET_NO":999,"REV_AT_EPOCH":6920,"BSTAR":8.8274e-5,"MEAN_MOTION_DOT":2.166e-5,"MEAN_MOTION_DDOT":0},{"OBJECT_NAME":"STARLINK-31821","OBJECT_ID":"2024-090H","EPOCH":"2025-07-28T10:38:22.055712","MEAN_MOTION":15.27578476,"ECCENTRICITY":0.0002557,"INCLINATION":43.0037,"RA_OF_ASC_NODE":10.0003,"ARG_OF_PERICENTER":283.4151,"MEAN_ANOMALY":76.6415,"EPHEMERIS_TYPE":0,"CLASSIFICATION_TYPE":"U","NORAD_CAT_ID":59737,"ELEMENT_SET_NO":999,"REV_AT_EPOCH":6914,"BSTAR":3.3362e-5,"MEAN_MOTION_DOT":6.55e-6,"MEAN_MOTION_DDOT":0},{"OBJECT_NAME":"STARLINK-31819","OBJECT_ID":"2024-090J","EPOCH":"2025-07-28T18:23:36.394944","MEAN_MOTION":15.27570841,"ECCENTRICITY":0.0001337,"INCLINATION":43.0042,"RA_OF_ASC_NODE":8.1235,"ARG_OF_PERICENTER":254.1617,"MEAN_ANOMALY":105.9088,"EPHEMERIS_TYPE":0,"CLASSIFICATION_TYPE":"U","NORAD_CAT_ID":59738,"ELEMENT_SET_NO":999,"REV_AT_EPOCH":6915,"BSTAR":-3.8063e-5,"MEAN_MOTION_DOT":-1.309e-5,"MEAN_MOTION_DDOT":0},{"OBJECT_NAME":"STARLINK-31726","OBJECT_ID":"2024-090K","EPOCH":"2025-07-28T17:46:37.582464","MEAN_MOTION":15.27558094,"ECCENTRICITY":0.0001704,"INCLINATION":43.0049,"RA_OF_ASC_NODE":7.931,"ARG_OF_PERICENTER":285.9918,"MEAN_ANOMALY":74.0746,"EPHEMERIS_TYPE":0,"CLASSIFICATION_TYPE":"U","NORAD_CAT_ID":59739,"ELEMENT_SET_NO":999,"REV_AT_EPOCH":6919,"BSTAR":-5.4368e-5,"MEAN_MOTION_DOT":-1.757e-5,"MEAN_MOTION_DDOT":0},{"OBJECT_NAME":"STARLINK-31759","OBJECT_ID":"2024-090L","EPOCH":"2025-07-28T11:04:16.956768","MEAN_MOTION":15.27570925,"ECCENTRICITY":0.000183,"INCLINATION":43.0021,"RA_OF_ASC_NODE":10.1341,"ARG_OF_PERICENTER":275.0046,"MEAN_ANOMALY":85.0597,"EPHEMERIS_TYPE":0,"CLASSIFICATION_TYPE":"U","NORAD_CAT_ID":59740,"ELEMENT_SET_NO":999,"REV_AT_EPOCH":6914,"BSTAR":-2.5567e-5,"MEAN_MOTION_DOT":-9.66e-6,"MEAN_MOTION_DDOT":0},{"OBJECT_NAME":"STARLINK-31818","OBJECT_ID":"2024-090M","EPOCH":"2025-07-28T17:09:48.763008","MEAN_MOTION":15.27567988,"ECCENTRICITY":5.7e-5,"INCLINATION":43.0005,"RA_OF_ASC_NODE":8.5958,"ARG_OF_PERICENTER":271.1325,"MEAN_ANOMALY":88.9461,"EPHEMERIS_TYPE":0,"CLASSIFICATION_TYPE":"U","NORAD_CAT_ID":59741,"ELEMENT_SET_NO":999,"REV_AT_EPOCH":6917,"BSTAR":-3.362e-5,"MEAN_MOTION_DOT":-1.186e-5,"MEAN_MOTION_DDOT":0},{"OBJECT_NAME":"STARLINK-31816","OBJECT_ID":"2024-090N","EPOCH":"2025-07-28T03:22:44.961024","MEAN_MOTION":15.27564834,"ECCENTRICITY":0.0001499,"INCLINATION":43.0014,"RA_OF_ASC_NODE":12.0099,"ARG_OF_PERICENTER":266.4379,"MEAN_ANOMALY":93.6302,"EPHEMERIS_TYPE":0,"CLASSIFICATION_TYPE":"U","NORAD_CAT_ID":59742,"ELEMENT_SET_NO":999,"REV_AT_EPOCH":6907,"BSTAR":-5.2768e-5,"MEAN_MOTION_DOT":-1.713e-5,"MEAN_MOTION_DDOT":0},{"OBJECT_NAME":"STARLINK-31809","OBJECT_ID":"2024-090P","EPOCH":"2025-07-28T10:21:16.033248","MEAN_MOTION":15.27573804,"ECCENTRICITY":0.000164,"INCLINATION":43.0008,"RA_OF_ASC_NODE":2.9836,"ARG_OF_PERICENTER":267.6855,"MEAN_ANOMALY":92.3809,"EPHEMERIS_TYPE":0,"CLASSIFICATION_TYPE":"U","NORAD_CAT_ID":59743,"ELEMENT_SET_NO":999,"REV_AT_EPOCH":6922,"BSTAR":-3.2188e-5,"MEAN_MOTION_DOT":-1.148e-5,"MEAN_MOTION_DDOT":0},{"OBJECT_NAME":"STARLINK-31779","OBJECT_ID":"2024-090Q","EPOCH":"2025-07-28T17:57:41.726304","MEAN_MOTION":15.27575474,"ECCENTRICITY":8.66e-5,"INCLINATION":43.0011,"RA_OF_ASC_NODE":7.99,"ARG_OF_PERICENTER":246.158,"MEAN_ANOMALY":113.9181,"EPHEMERIS_TYPE":0,"CLASSIFICATION_TYPE":"U","NORAD_CAT_ID":59744,"ELEMENT_SET_NO":999,"REV_AT_EPOCH":6917,"BSTAR":-5.0649e-6,"MEAN_MOTION_DOT":-4.01e-6,"MEAN_MOTION_DDOT":0},{"OBJECT_NAME":"STARLINK-31805","OBJECT_ID":"2024-090R","EPOCH":"2025-07-28T17:41:01.313664","MEAN_MOTION":15.27583798,"ECCENTRICITY":0.0001085,"INCLINATION":43.0052,"RA_OF_ASC_NODE":7.9021,"ARG_OF_PERICENTER":270.3766,"MEAN_ANOMALY":89.6961,"EPHEMERIS_TYPE":0,"CLASSIFICATION_TYPE":"U","NORAD_CAT_ID":59745,"ELEMENT_SET_NO":999,"REV_AT_EPOCH":6919,"BSTAR":0.00012572,"MEAN_MOTION_DOT":3.199e-5,"MEAN_MOTION_DDOT":0},{"OBJECT_NAME":"STARLINK-31681","OBJECT_ID":"2024-090S","EPOCH":"2025-07-28T10:26:48.614496","MEAN_MOTION":15.27597877,"ECCENTRICITY":0.0001555,"INCLINATION":43.0009,"RA_OF_ASC_NODE":3.0112,"ARG_OF_PERICENTER":271.0678,"MEAN_ANOMALY":88.9995,"EPHEMERIS_TYPE":0,"CLASSIFICATION_TYPE":"U","NORAD_CAT_ID":59746,"ELEMENT_SET_NO":999,"REV_AT_EPOCH":6922,"BSTAR":-0.00012887,"MEAN_MOTION_DOT":-3.809e-5,"MEAN_MOTION_DDOT":0}]
