STARLINK-31472          
1 59730U 24090A   25209.76253902 -.00001427  00000+0 -42355-4 0  9999
2 59730  43.0040   8.0970 0001261 263.2776  96.7932 15.27570652 69140
STARLINK-31817          
1 59731U 24090B   25209.74454503 -.00003171  00000+0 -10580-3 0  9990
2 59731  43.0006   7.9632 0001117 251.4189 108.6542 15.27569131 69211
STARLINK-31841          
1 59732U 24090C   25209.38148782  .00022526  00000+0  75297-3 0  9999
2 59732  43.0054 333.6866 0005901 313.6681  46.3682 15.30570952 69553
STARLINK-31833          
1 59733U 24090D   25209.77667161 -.00001377  00000+0 -40500-4 0  9993
2 59733  43.0045   8.2004 0001617 274.6310  85.4357 15.27580962 69144
STARLINK-31849          
1 59734U 24090E   25209.76607825 -.00000006  00000+0  93238-5 0  9998
2 59734  43.0024   1.1983 0001214 279.0910  80.9804 15.27573039 69287
STARLINK-31661          
1 59735U 24090F   25209.42757632  .00000956  00000+0  44277-4 0  9995
2 59735  43.0060   2.9637 0001333 263.5164  96.5536 15.27578605 69171
STARLINK-31707          
1 59736U 24090G   25209.75869037  .00002166  00000+0  88274-4 0  9995
2 59736  42.9975   8.0636 0001345 141.3434 218.7514 15.27552110 69208
STARLINK-31821          
1 59737U 24090H   25209.44331083  .00000655  00000+0  33362-4 0  9996
2 59737  43.0037  10.0003 0002557 283.4151  76.6415 15.27578476 69148
STARLINK-31819          
1 59738U 24090J   25209.76639346 -.00001309  00000+0 -38063-4 0  9997
2 59738  43.0042   8.1235 0001337 254.1617 105.9088 15.27570841 69158
STARLINK-31726          
1 59739U 24090K   25209.74071276 -.00001757  00000+0 -54368-4 0  9991
2 59739  43.0049   7.9310 0001704 285.9918  74.0746 15.27558094 69198
STARLINK-31759          
1 59740U 24090L   25209.46130737 -.00000966  00000+0 -25567-4 0  9990
2 59740  43.0021  10.1341 0001830 275.0046  85.0597 15.27570925 69140
STARLINK-31818          
1 59741U 24090M   25209.71514772 -.00001186  00000+0 -33620-4 0  9998
2 59741  43.0005   8.5958 0000570 271.1325  88.9461 15.27567988 69175
STARLINK-31816          
1 59742U 24090N   25209.14079816 -.00001713  00000+0 -52768-4 0  9991
2 59742  43.0014  12.0099 0001499 266.4379  93.6302 15.27564834 69072
STARLINK-31809          
1 59743U 24090P   25209.43143557 -.00001148  00000+0 -32188-4 0  9994
2 59743  43.0008   2.9836 0001640 267.6855  92.3809 15.27573804 69225
STARLINK-31779          
1 59744U 24090Q   25209.74839961 -.00000401  00000+0 -50649-5 0  9994
2 59744  43.0011   7.9900 0000866 246.1580 113.9181 15.27575474 69175
STARLINK-31805          
1 59745U 24090R   25209.73682076  .00003199  00000+0  12572-3 0  9993
2 59745  43.0052   7.9021 0001085 270.3766  89.6961 15.27583798 69199
STARLINK-31681          
1 59746U 24090S   25209.43528489 -.00003809  00000+0 -12887-3 0  9997
2 59746  43.0009   3.0112 0001555 271.0678  88.9995 15.27597877 69228
